MALLIGYONG-1            
1 58400U 23179A   24293.21963479  .00015991  00000+0  71382-3 0  9998
2 58400  97.3828 177.8795 0008702  13.8347 346.3126 15.21417586 50586
